NORAD_CAT_ID,OBJECT_NAME,OBJECT_TYPE,EPOCH,MEAN_MOTION,ECCENTRICITY,INCLINATION,RA_OF_ASC_NODE,ARG_OF_PERICENTER,MEAN_ANOMALY,BSTAR,MEAN_MOTION_DOT,MEAN_MOTION_DDOT,TLE_LINE0,TLE_LINE1,TLE_LINE2,SEMIMAJOR_AXIS,PERIOD,APOGEE,PERIGEE,DECAYED
53174.0,STARLINK-4205,PAYLOAD,2023-12-06 01:32:09,15.08843552,0.0001409,53.2162,275.9414,102.1349,257.9801,0.00016361,2.317e-05,0.0,0 STARLINK-4205,1 53174U 22083AU  23340.06400380  .00002317  00000-0  16361-3 0  9991,2 53174  53.2162 275.9414 0001409 102.1349 257.9801 15.08843552 77363,6917.87,95.437,540.709,538.76,0.0
53174.0,STARLINK-4205,PAYLOAD,2023-12-06 06:18:19,15.08843675,0.0001427,53.2161,275.049,102.7486,257.3666,0.00060503,9.355e-05,0.0,0 STARLINK-4205,1 53174U 22083AU  23340.26272623  .00009355  00000-0  60503-3 0  9996,2 53174  53.2161 275.0490 0001427 102.7486 257.3666 15.08843675 76756,6917.869,95.437,540.721,538.747,0.0
53174.0,STARLINK-4205,PAYLOAD,2023-12-07 02:58:20,15.08834462,0.0001376,53.2165,271.1808,97.0138,263.101,0.00010772,1.427e-05,0.0,0 STARLINK-4205,1 53174U 22083AU  23341.12385219  .00001427  00000-0  10772-3 0  9993,2 53174  53.2165 271.1808 0001376  97.0138 263.1010 15.08834462 77521,6917.897,95.438,540.714,538.81,0.0
53174.0,STARLINK-4205,PAYLOAD,2023-12-07 06:09:07,15.08833509,0.0001397,53.2163,270.5887,88.9844,271.1308,0.00013212,1.815e-05,0.0,0 STARLINK-4205,1 53174U 22083AU  23341.25633416  .00001815  00000-0  13212-3 0  9995,2 53174  53.2163 270.5887 0001397  88.9844 271.1308 15.08833509 76906,6917.9,95.438,540.732,538.799,0.0
53174.0,STARLINK-4205,PAYLOAD,2023-12-08 02:49:07,15.08845026,0.000144,53.2164,266.724,85.0061,275.1095,0.00021949,3.207e-05,0.0,0 STARLINK-4205,1 53174U 22083AU  23342.11745091  .00003207  00000-0  21949-3 0  9997,2 53174  53.2164 266.7240 0001440  85.0061 275.1095 15.08845026 77674,6917.865,95.437,540.726,538.734,0.0
53174.0,STARLINK-4205,PAYLOAD,2023-12-08 18:42:59,15.08841893,0.0001461,53.2164,263.7514,87.5095,272.6065,0.00018235,2.615e-05,0.0,0 STARLINK-4205,1 53174U 22083AU  23342.77985280  .00002615  00000-0  18235-3 0  9991,2 53174  53.2164 263.7514 0001461  87.5095 272.6065 15.08841893 77770,6917.875,95.437,540.75,538.729,0.0
53174.0,STARLINK-4205,PAYLOAD,2023-12-10 21:35:19,15.08845541,0.0001412,53.2164,254.2346,88.9463,271.1691,0.00016743,2.378e-05,0.0,0 STARLINK-4205,1 53174U 22083AU  23344.89953068  .00002378  00000-0  16743-3 0  9993,2 53174  53.2164 254.2346 0001412  88.9463 271.1691 15.08845541 77456,6917.863,95.437,540.705,538.752,0.0
53174.0,STARLINK-4205,PAYLOAD,2023-12-11 00:46:05,15.08846468,0.0001431,53.216,253.6399,84.925,275.1906,0.0001344,1.852e-05,0.0,0 STARLINK-4205,1 53174U 22083AU  23345.03200976  .00001852  00000-0  13440-3 0  9990,2 53174  53.2160 253.6399 0001431  84.9250 275.1906 15.08846468 78110,6917.861,95.437,540.716,538.736,0.0
53174.0,STARLINK-4205,PAYLOAD,2023-12-11 23:01:29,15.08837669,0.0001701,53.2171,249.4768,100.3631,259.7553,0.00012141,1.645e-05,0.0,0 STARLINK-4205,1 53174U 22083AU  23345.95937226  .00001645  00000-0  12141-3 0  9993,2 53174  53.2171 249.4768 0001701 100.3631 259.7553 15.08837669 77614,6917.888,95.438,540.929,538.576,0.0
53174.0,STARLINK-4205,PAYLOAD,2023-12-12 00:36:52,15.08837587,0.0001629,53.2169,249.1798,93.5126,266.6052,0.00010336,1.357e-05,0.0,0 STARLINK-4205,1 53174U 22083AU  23346.02561285  .00001357  00000-0  10336-3 0  9994,2 53174  53.2169 249.1798 0001629  93.5126 266.6052 15.08837587 78264,6917.888,95.438,540.88,538.626,0.0
53174.0,STARLINK-4205,PAYLOAD,2023-12-12 22:52:16,15.08843017,0.0001636,53.2167,245.0179,98.969,261.1487,0.00013122,1.801e-05,0.0,0 STARLINK-4205,1 53174U 22083AU  23346.95297111  .00001801  00000-0  13122-3 0  9990,2 53174  53.2167 245.0179 0001636  98.9690 261.1487 15.08843017 77764,6917.871,95.437,540.868,538.604,0.0
53174.0,STARLINK-4205,PAYLOAD,2023-12-13 00:27:39,15.08844168,0.0001647,53.2168,244.7209,99.2185,260.8993,0.00014362,1.999e-05,0.0,0 STARLINK-4205,1 53174U 22083AU  23347.01921047  .00001999  00000-0  14362-3 0  9995,2 53174  53.2168 244.7209 0001647  99.2185 260.8993 15.08844168 77777,6917.868,95.437,540.872,538.593,0.0
53174.0,STARLINK-4205,PAYLOAD,2023-12-13 21:07:40,15.08839768,0.0001667,53.2167,240.8574,102.8267,257.2912,5.6366e-05,6.09e-06,0.0,0 STARLINK-4205,1 53174U 22083AU  23347.88033203  .00000609  00000-0  56366-4 0  9996,2 53174  53.2167 240.8574 0001667 102.8267 257.2912 15.08839768 77908,6917.881,95.438,540.899,538.593,0.0
53174.0,STARLINK-4205,PAYLOAD,2023-12-13 22:43:03,15.08839034,0.0001643,53.2165,240.5591,101.5281,258.5896,4.211e-05,3.82e-06,0.0,0 STARLINK-4205,1 53174U 22083AU  23347.94657236  .00000382  00000-0  42110-4 0  9991,2 53174  53.2165 240.5591 0001643 101.5281 258.5896 15.08839034 78551,6917.883,95.438,540.885,538.612,0.0
53174.0,STARLINK-4205,PAYLOAD,2023-12-14 22:33:50,15.08839502,0.0001659,53.2161,236.0981,103.733,256.3847,2.785e-05,1.55e-06,0.0,0 STARLINK-4205,1 53174U 22083AU  23348.94017312  .00000155  00000-0  27850-4 0  9999,2 53174  53.2161 236.0981 0001659 103.7330 256.3847 15.08839502 78064,6917.882,95.438,540.895,538.599,0.0
53174.0,STARLINK-4205,PAYLOAD,2023-12-15 00:09:14,15.08841473,0.0001568,53.2159,235.798,89.4568,270.6603,4.9276e-05,4.96e-06,0.0,0 STARLINK-4205,1 53174U 22083AU  23349.00641255  .00000496  00000-0  49276-4 0  9990,2 53174  53.2159 235.7980 0001568  89.4568 270.6603 15.08841473 78719,6917.876,95.437,540.826,538.656,0.0
53174.0,STARLINK-4205,PAYLOAD,2023-12-15 22:24:38,15.08833237,0.0001571,53.2168,231.6352,80.9688,279.1482,6.249e-05,7.06e-06,0.0,0 STARLINK-4205,1 53174U 22083AU  23349.93378269  .00000706  00000-0  62490-4 0  9991,2 53174  53.2168 231.6352 0001571  80.9688 279.1482 15.08833237 78213,6917.901,95.438,540.853,538.679,0.0
53174.0,STARLINK-4205,PAYLOAD,2023-12-16 00:00:01,15.08834267,0.000158,53.2168,231.3386,79.1426,280.9744,6.7722e-05,7.9e-06,0.0,0 STARLINK-4205,1 53174U 22083AU  23350.00002226  .00000790  00000-0  67722-4 0  9994,2 53174  53.2168 231.3386 0001580  79.1426 280.9744 15.08834267 78863,6917.898,95.438,540.856,538.67,0.0
53174.0,STARLINK-4205,PAYLOAD,2023-12-16 22:15:25,15.08843998,0.0001674,53.2169,227.1756,74.4928,285.6249,0.00010534,1.389e-05,0.0,0 STARLINK-4205,1 53174U 22083AU  23350.92737676  .00001389  00000-0  10534-3 0  9992,2 53174  53.2169 227.1756 0001674  74.4928 285.6249 15.08843998 78365,6917.868,95.437,540.891,538.575,0.0
53174.0,STARLINK-4205,PAYLOAD,2023-12-17 22:06:12,15.08848085,0.0001503,53.2153,222.7128,82.6644,277.4519,0.00020026,2.901e-05,0.0,0 STARLINK-4205,1 53174U 22083AU  23351.92097468  .00002901  00000-0  20026-3 0  9999,2 53174  53.2153 222.7128 0001503  82.6644 277.4519 15.08848085 78517,6917.856,95.437,540.76,538.681,0.0
53174.0,STARLINK-4205,PAYLOAD,2023-12-18 18:46:13,15.08839988,0.0001615,53.2159,218.8521,106.8025,253.3144,-1.7909e-05,-5.73e-06,0.0,0 STARLINK-4205,1 53174U 22083AU  23352.78209689 -.00000573  00000-0 -17909-4 0  9996,2 53174  53.2159 218.8521 0001615 106.8025 253.3144 15.08839988 79286,6917.88,95.438,540.863,538.628,0.0
53174.0,STARLINK-4205,PAYLOAD,2023-12-18 21:56:59,15.08840989,0.0001535,53.2167,218.2568,103.801,256.3153,-5.0461e-06,-3.68e-06,0.0,0 STARLINK-4205,1 53174U 22083AU  23352.91457784 -.00000368  00000-0 -50461-5 0  9995,2 53174  53.2167 218.2568 0001535 103.8010 256.3153 15.08840989 78669,6917.877,95.437,540.804,538.68,0.0
53174.0,STARLINK-4205,PAYLOAD,2023-12-19 20:12:23,15.08836184,0.00015,53.2162,214.0924,107.5137,252.6019,-3.4643e-05,-8.39e-06,0.0,0 STARLINK-4205,1 53174U 22083AU  23353.84194293 -.00000839  00000-0 -34643-4 0  9997,2 53174  53.2162 214.0924 0001500 107.5137 252.6019 15.08836184 79446,6917.892,95.438,540.795,538.719,0.0
53174.0,STARLINK-4205,PAYLOAD,2023-12-19 21:47:46,15.08838932,0.0001464,53.2161,213.7923,98.1484,261.9674,-1.873e-05,-5.86e-06,0.0,0 STARLINK-4205,1 53174U 22083AU  23353.90818051 -.00000586  00000-0 -18730-4 0  9997,2 53174  53.2161 213.7923 0001464  98.1484 261.9674 15.08838932 78812,6917.884,95.438,540.761,538.736,0.0
53174.0,STARLINK-4205,PAYLOAD,2023-12-20 21:38:34,15.08823188,0.0001642,53.2161,209.3325,113.1015,247.015,0.00036024,5.447e-05,0.0,0 STARLINK-4205,1 53174U 22083AU  23354.90178330  .00005447  00000-0  36024-3 0  9991,2 53174  53.2161 209.3325 0001642 113.1015 247.0150 15.08823188 78962,6917.932,95.439,540.933,538.661,0.0
53174.0,STARLINK-4205,PAYLOAD,2023-12-21 21:29:21,15.08838541,0.0001393,53.2157,204.8719,105.967,254.1476,7.654e-05,9.3e-06,0.0,0 STARLINK-4205,1 53174U 22083AU  23355.89538435  .00000930  00000-0  76540-4 0  9996,2 53174  53.2157 204.8719 0001393 105.9670 254.1476 15.08838541 79110,6917.885,95.438,540.714,538.786,0.0
53174.0,STARLINK-4205,PAYLOAD,2023-12-22 19:44:45,15.0884014,0.0001394,53.2158,200.7075,98.3179,261.7971,5.7361e-05,6.25e-06,0.0,0 STARLINK-4205,1 53174U 22083AU  23356.82274576  .00000625  00000-0  57361-4 0  9994,2 53174  53.2158 200.7075 0001394  98.3179 261.7971 15.08840140 79898,6917.88,95.438,540.709,538.781,0.0
53174.0,STARLINK-4205,PAYLOAD,2023-12-22 21:20:08,15.0884137,0.0001351,53.2156,200.4097,88.1168,271.9979,5.9795e-05,6.64e-06,0.0,0 STARLINK-4205,1 53174U 22083AU  23356.88898498  .00000664  00000-0  59795-4 0  9991,2 53174  53.2156 200.4097 0001351  88.1168 271.9979 15.08841370 79263,6917.876,95.437,540.676,538.807,0.0
53174.0,STARLINK-4205,PAYLOAD,2023-12-23 13:13:59,15.08841136,0.0001436,53.2157,197.4394,75.5301,284.585,0.00010462,1.378e-05,0.0,0 STARLINK-4205,1 53174U 22083AU  23357.55138546  .00001378  00000-0  10462-3 0  9997,2 53174  53.2157 197.4394 0001436  75.5301 284.5850 15.08841136 79361,6917.877,95.437,540.735,538.749,0.0
53174.0,STARLINK-4205,PAYLOAD,2023-12-23 21:10:55,15.08844004,0.0001532,53.2163,195.953,74.8257,285.2904,0.00012465,1.697e-05,0.0,0 STARLINK-4205,1 53174U 22083AU  23357.88258358  .00001697  00000-0  12465-3 0  9996,2 53174  53.2163 195.9530 0001532  74.8257 285.2904 15.08844004 79413,6917.868,95.437,540.793,538.673,0.0
